AII-BRAVO               
1 48270U 21034C   26068.69561509  .00006142  00000+0  46527-3 0  9993
2 48270  97.5758 125.8704 0005372 233.3237 126.7495 15.02621336264679
STARLINK-5628           
1 55466U 23015T   26068.39732500 -.00000442  00000+0 -17660-4 0  9993
2 55466  43.0067 327.2640 0001418 267.1501  92.9179 15.02533041170715
